1 45187U 20012K   22365.06423840  .00007060  00000-0  49228-3 0  9996
2 45187  53.0516 234.8358 0001326  87.6545 272.4595 15.06406264159291
1 45187U 20012K   22365.06423840  .00007060  00000-0  49228-3 0  9996
2 45187  53.0516 234.8358 0001326  87.6545 272.4595 15.06406264158403
1 45187U 20012K   22365.66135742  .00006673  00000-0  46635-3 0  9991
2 45187  53.0511 232.1553 0001411  84.6956 275.4194 15.06407206159387
1 45187U 20012K   23001.05944107  .00002286  00000-0  17228-3 0  9997
2 45187  53.0538 230.3682 0001081  73.5826 286.5281 15.06400130158552
1 45187U 20012K   23001.59021816 -.00001266  00000-0 -66097-4 0  9997
2 45187  53.0515 227.9859 0001492  82.6267 277.4892 15.06395024159521
1 45187U 20012K   23001.92195228 -.00002947  00000-0 -17907-3 0  9995
2 45187  53.0518 226.4965 0001441  84.4576 275.6578 15.06395413159571
1 45187U 20012K   23001.98829946 -.00002871  00000-0 -17395-3 0  9999
2 45187  53.0519 226.1986 0001413  82.6037 277.5113 15.06395211158697
1 45187U 20012K   23002.58540490 -.00009466  00000-0 -61682-3 0  9995
2 45187  53.0529 223.5177 0001250  71.7352 288.3773 15.06436104159677
1 45187U 20012K   23002.65176982  .00001484  00000-0  11853-3 0  9999
2 45187  53.0528 223.2200 0001365  84.6644 275.4501 15.06394403159686
1 45187U 20012K   23003.31523486  .00002101  00000-0  15986-3 0  9996
2 45187  53.0527 220.2415 0001343  83.9674 276.1468 15.06401377158892
1 45187U 20012K   23003.58062599  .00000361  00000-0  43158-4 0  9997
2 45187  53.0526 219.0501 0001369  84.9803 275.1342 15.06398690159823
1 45187U 20012K   23003.97871506  .00001151  00000-0  96196-4 0  9994
2 45187  53.0528 217.2629 0001318  85.0149 275.0991 15.06388887158998
1 45187U 20012K   23004.57583193  .00001389  00000-0  11211-3 0  9990
2 45187  53.0518 214.5824 0001341  83.5844 276.5298 15.06398872159975
1 45187U 20012K   23004.57583193  .00001389  00000-0  11211-3 0  9990
2 45187  53.0518 214.5824 0001341  83.5844 276.5298 15.06398872159087
1 45187U 20012K   23004.84121798  .00001395  00000-0  11251-3 0  9990
2 45187  53.0518 213.3908 0001355  83.8833 276.2310 15.06400334160017
1 45187U 20012K   23005.57104267 -.00001316  00000-0 -69457-4 0  9990
2 45187  53.0517 210.1144 0001479  83.8721 276.2436 15.06392616159230
1 45187U 20012K   23005.83643169  .00000209  00000-0  32962-4 0  9997
2 45187  53.0518 208.9225 0001439  88.4142 271.7011 15.06387998160160
1 45187U 20012K   23006.56623906  .00003970  00000-0  28530-3 0  9998
2 45187  53.0533 205.6474 0001311  87.0877 273.0262 15.06392798159385
1 45187U 20012K   23006.89794880  .00004212  00000-0  30130-3 0  9993
2 45187  53.0518 204.1565 0001568  87.3032 272.8136 15.06425868160321
1 45187U 20012K   23006.96429526  .00003985  00000-0  28609-3 0  9997
2 45187  53.0518 203.8590 0001604  87.3044 272.8129 15.06425240159446
1 45187U 20012K   23007.22971042  .00000790  00000-0  72006-4 0  9994
2 45187  53.0523 202.6653 0004256  77.1769 282.9695 15.06398298160372
1 45187U 20012K   23007.22971042  .00000790  00000-0  72006-4 0  9994
2 45187  53.0523 202.6653 0004256  77.1769 282.9695 15.06398298159482
1 45187U 20012K   23007.82683545  .00000389  00000-0  45001-4 0  9997
2 45187  53.0529 199.9881 0001756  97.4299 262.6890 15.06388294159571
1 45187U 20012K   23007.89318294  .00000100  00000-0  25627-4 0  9993
2 45187  53.0540 199.6905 0001503  92.2349 267.8812 15.06388736160470
1 45187U 20012K   23008.55665057 -.00003480  00000-0 -21478-3 0  9994
2 45187  53.0534 196.7112 0001647  94.8780 265.2397 15.06404465160576
1 45187U 20012K   23008.55665057 -.00003480  00000-0 -21478-3 0  9994
2 45187  53.0534 196.7112 0001647  94.8780 265.2397 15.06404465159686
1 45187U 20012K   23008.88838317 -.00003127  00000-0 -19110-3 0  9999
2 45187  53.0529 195.2217 0001649  95.4735 264.6442 15.06404077160628
1 45187U 20012K   23009.48550960  .00001604  00000-0  12660-3 0  9990
2 45187  53.0529 192.5408 0001574  97.4824 262.6344 15.06386290160713
1 45187U 20012K   23009.61820344  .00001847  00000-0  14293-3 0  9994
2 45187  53.0524 191.9449 0001570  97.4808 262.6359 15.06387554160736
1 45187U 20012K   23009.61820344  .00001847  00000-0  14293-3 0  9994
2 45187  53.0524 191.9449 0001570  97.4808 262.6359 15.06387554159846
1 45187U 20012K   23010.54705953  .00002275  00000-0  17160-3 0  9998
2 45187  53.0522 187.7747 0001582  97.6009 262.5160 15.06394341160872
1 45187U 20012K   23010.74609966  .00002411  00000-0  18073-3 0  9993
2 45187  53.0523 186.8811 0001571  97.9549 262.1619 15.06396042160904
1 45187U 20012K   23010.74609966  .00002411  00000-0  18073-3 0  9993
2 45187  53.0523 186.8811 0001571  97.9549 262.1619 15.06396042160016
1 45187U 20012K   23011.21052809  .00002024  00000-0  15472-3 0  9994
2 45187  53.0522 184.7965 0001493  97.7870 262.3289 15.06398677160976
1 45187U 20012K   23011.87399574  .00002368  00000-0  17778-3 0  9991
2 45187  53.0514 181.8176 0001607  95.9242 264.1930 15.06402926161077
1 45187U 20012K   23011.87399574  .00002368  00000-0  17778-3 0  9991
2 45187  53.0514 181.8176 0001607  95.9242 264.1930 15.06402926160188
1 45187U 20012K   23012.73650356  .00001148  00000-0  95962-4 0  9992
2 45187  53.0508 177.9463 0001610  92.3972 267.7201 15.06401985161209
1 45187U 20012K   23012.73650356  .00001148  00000-0  95962-4 0  9992
2 45187  53.0508 177.9463 0001610  92.3972 267.7201 15.06401985160310
1 45187U 20012K   23013.73170798  .00002742  00000-0  20293-3 0  9995
2 45187  53.0519 173.4779 0001431  90.3691 269.7462 15.06397864160467
1 45187U 20012K   23013.79805140  .00001221  00000-0  10082-3 0  9993
2 45187  53.0522 173.1796 0001447  88.7149 271.4005 15.06403531161365
1 45187U 20012K   23015.19133830  .00000977  00000-0  84461-4 0  9999
2 45187  53.0530 166.9266 0001204  88.8533 271.2594 15.06398803160685
1 45187U 20012K   23015.58942228  .00000271  00000-0  37059-4 0  9999
2 45187  53.0524 165.1382 0001338  92.3624 267.7518 15.06396625161639
1 45187U 20012K   23015.78845855  .00000932  00000-0  81440-4 0  9996
2 45187  53.0524 164.2447 0001314  91.8236 268.2903 15.06401669161660
1 45187U 20012K   23016.58462746  .00000751  00000-0  69313-4 0  9993
2 45187  53.0527 160.6705 0001291  88.2236 271.8901 15.06394127161785
1 45187U 20012K   23016.71731769  .00001199  00000-0  99371-4 0  9996
2 45187  53.0533 160.0749 0001338  87.8438 272.2704 15.06399174161801
1 45187U 20012K   23016.71731769  .00001199  00000-0  99371-4 0  9996
2 45187  53.0533 160.0749 0001338  87.8438 272.2704 15.06399174160912
1 45187U 20012K   23017.38079376  .00000229  00000-0  34286-4 0  9996
2 45187  53.0516 157.0963 0001262  80.6507 279.4624 15.06387897161900
1 45187U 20012K   23017.38079376  .00000229  00000-0  34286-4 0  9996
2 45187  53.0516 157.0963 0001262  80.6507 279.4624 15.06387897161012
1 45187U 20012K   23017.71252585  .00000293  00000-0  38572-4 0  9991
2 45187  53.0517 155.6102 0001228  75.9869 284.1257 15.06395368161952
1 45187U 20012K   23018.50868352  .00002139  00000-0  16245-3 0  9997
2 45187  53.0532 152.0339 0001170  75.2392 284.8726 15.06400928162073
1 45187U 20012K   23018.64137328  .00002695  00000-0  19970-3 0  9999
2 45187  53.0532 151.4367 0001236  83.9290 276.1840 15.06405898161209
1 45187U 20012K   23019.50389387  .00000877  00000-0  77797-4 0  9991
2 45187  53.0533 147.5660 0001209  77.9118 282.2007 15.06396199162223
1 45187U 20012K   23019.76927775  .00001106  00000-0  93146-4 0  9990
2 45187  53.0535 146.3729 0001153  97.0736 263.0384 15.06399891161377
1 45187U 20012K   23020.49909163  .00001706  00000-0  13339-3 0  9994
2 45187  53.0543 143.0963 0001252 109.6120 250.5004 15.06401451162374
1 45187U 20012K   23020.69812542  .00003570  00000-0  25836-3 0  9996
2 45187  53.0538 142.2056 0001229  90.3804 269.7326 15.06411681161511
1 45187U 20012K   23021.02986321  .00002644  00000-0  19630-3 0  9997
2 45187  53.0536 140.7135 0001282  78.9165 281.1968 15.06404880161569
1 45187U 20012K   23021.69333351  .00000933  00000-0  81554-4 0  9993
2 45187  53.0535 137.7360 0001521 104.9282 255.1875 15.06401645161665
1 45187U 20012K   23023.02027171 -.00000126  00000-0  10402-4 0  9991
2 45187  53.0529 131.7793 0001201  92.6206 267.4920 15.06401840161862
1 45187U 20012K   23024.21452176  .00001890  00000-0  14576-3 0  9993
2 45187  53.0534 126.4190 0001491 108.4091 251.7060 15.06396297162040
1 45187U 20012K   23025.47511879  .00000984  00000-0  84990-4 0  9999
2 45187  53.0540 120.7605 0001273  85.5335 274.5800 15.06389994162231
1 45187U 20012K   23025.54146224  .00000231  00000-0  34381-4 0  9999
2 45187  53.0528 120.4614 0001249  75.1911 284.9216 15.06397363163137
1 45187U 20012K   23026.53665728  .00002836  00000-0  20916-3 0  9995
2 45187  53.0532 115.9941 0001324  66.5070 293.6058 15.06407794163285
1 45187U 20012K   23026.53665728  .00002836  00000-0  20916-3 0  9995
2 45187  53.0532 115.9941 0001324  66.5070 293.6058 15.06407794162396
1 45187U 20012K   23026.93474278  .00000905  00000-0  79663-4 0  9996
2 45187  53.0525 114.2073 0001384  66.8863 293.2272 15.06402165162453
1 45187U 20012K   23027.39917994  .00000947  00000-0  82485-4 0  9996
2 45187  53.0535 112.1228 0001416  62.2482 297.8650 15.06391157163411
1 45187U 20012K   23027.39917994  .00000947  00000-0  82485-4 0  9996
2 45187  53.0535 112.1228 0001416  62.2482 297.8650 15.06391157162522
1 45187U 20012K   23027.92994954  .00000942  00000-0  82120-4 0  9997
2 45187  53.0532 109.7405 0001355  67.9228 292.1905 15.06399452162606
1 45187U 20012K   23028.52707125 -.00000087  00000-0  13055-4 0  9998
2 45187  53.0535 107.0588 0001390  69.2731 290.8407 15.06400969163581
1 45187U 20012K   23029.45592710 -.00001953  00000-0 -11222-3 0  9990
2 45187  53.0545 102.8879 0001664  74.4746 285.6427 15.06406545162833
1 45187U 20012K   23029.92035714  .00000700  00000-0  65889-4 0  9994
2 45187  53.0542 100.8030 0001296  79.6937 280.4198 15.06394325163793
1 45187U 20012K   23029.98670450  .00000724  00000-0  67499-4 0  9997
2 45187  53.0541 100.5051 0001334  80.6203 279.4937 15.06393877162916
1 45187U 20012K   23030.38478579  .00000678  00000-0  64426-4 0  9996
2 45187  53.0532  98.7188 0001267  80.9804 279.1328 15.06394443163866
1 45187U 20012K   23030.91555698  .00000359  00000-0  43018-4 0  9993
2 45187  53.0533  96.3360 0001280  81.8821 278.2313 15.06400585163945
1 45187U 20012K   23031.44633548 -.00000225  00000-0  37664-5 0  9997
2 45187  53.0535  93.9556 0001425  74.4709 285.6437 15.06399230163135
1 45187U 20012K   23031.57902394  .00000500  00000-0  52467-4 0  9991
2 45187  53.0537  93.3559 0001217  97.4526 262.6602 15.06401625164047
